{
  "type": "FeatureCollection",
  "features": [
    {
      "type": "Feature",
      "properties": {
        "norad_id": 66337,
        "name": "STARLINK-34783",
        "group": "last-30-days",
        "lat": 21.930846150333895,
        "lon": 57.92009818126947,
        "alt_km": 440.5611295505287,
        "timestamp": "2025-12-04T15:47:52.867443+00:00",
        "meta_object_name": "STARLINK-34783",
        "meta_object_id": "2025-253U",
        "meta_epoch": "2025-12-04T04:45:52.840800",
        "meta_mean_motion": 15.4082153,
        "meta_eccentricity": 0.00059492,
        "meta_inclination": 42.9998,
        "meta_ra_of_asc_node": 34.9717,
        "meta_arg_of_pericenter": 289.8926,
        "meta_mean_anomaly": 70.1289,
        "meta_ephemeris_type": 0,
        "meta_classification_type": "U",
        "meta_norad_cat_id": 66337,
        "meta_element_set_no": 999,
        "meta_rev_at_epoch": 560,
        "meta_bstar": 0.0033658207,
        "meta_mean_motion_dot": 0.0014361,
        "meta_mean_motion_ddot": 0,
        "tle_line1": "1 66337U 25253U   25338.19852825  .00143610  00000+0  33658-2 0  9994",
        "tle_line2": "2 66337  42.9998  34.9717 0005949 289.8926  70.1289 15.40821530  5607"
      },
      "geometry": {
        "type": "Point",
        "coordinates": [
          57.92009818126947,
          21.930846150333895
        ]
      }
    },
    {
      "type": "Feature",
      "properties": {
        "norad_id": 66338,
        "name": "STARLINK-35477",
        "group": "last-30-days",
        "lat": -2.2030194088446584,
        "lon": 30.042019177195236,
        "alt_km": 443.34912642735344,
        "timestamp": "2025-12-04T15:47:52.867454+00:00",
        "meta_object_name": "STARLINK-35477",
        "meta_object_id": "2025-253V",
        "meta_epoch": "2025-12-03T05:35:16.634688",
        "meta_mean_motion": 15.40809844,
        "meta_eccentricity": 5.96e-05,
        "meta_inclination": 43.0004,
        "meta_ra_of_asc_node": 40.627,
        "meta_arg_of_pericenter": 180.5282,
        "meta_mean_anomaly": 179.5573,
        "meta_ephemeris_type": 0,
        "meta_classification_type": "U",
        "meta_norad_cat_id": 66338,
        "meta_element_set_no": 999,
        "meta_rev_at_epoch": 545,
        "meta_bstar": 0.0022359,
        "meta_mean_motion_dot": 0.00094607,
        "meta_mean_motion_ddot": 0,
        "tle_line1": "1 66338U 25253V   25337.23283142  .00094607  00000+0  22359-2 0  9996",
        "tle_line2": "2 66338  43.0004  40.6270 0000596 180.5282 179.5573 15.40809844  5458"
      },
      "geometry": {
        "type": "Point",
        "coordinates": [
          30.042019177195236,
          -2.2030194088446584
        ]
      }
    },
    {
      "type": "Feature",
      "properties": {
        "norad_id": 66339,
        "name": "STARLINK-35443",
        "group": "last-30-days",
        "lat": 23.074808480264817,
        "lon": -175.15341667345044,
        "alt_km": 441.1041035885619,
        "timestamp": "2025-12-04T15:47:52.867464+00:00",
        "meta_object_name": "STARLINK-35443",
        "meta_object_id": "2025-253W",
        "meta_epoch": "2025-12-04T08:00:01.999872",
        "meta_mean_motion": 15.40705882,
        "meta_eccentricity": 0.00014373,
        "meta_inclination": 43.0004,
        "meta_ra_of_asc_node": 33.9235,
        "meta_arg_of_pericenter": 269.5286,
        "meta_mean_anomaly": 231.1719,
        "meta_ephemeris_type": 0,
        "meta_classification_type": "U",
        "meta_norad_cat_id": 66339,
        "meta_element_set_no": 999,
        "meta_rev_at_epoch": 562,
        "meta_bstar": -0.0017457497,
        "meta_mean_motion_dot": -0.00072552,
        "meta_mean_motion_ddot": 0,
        "tle_line1": "1 66339U 25253W   25338.33335648 -.00072552  00000+0 -17457-2 0  9998",
        "tle_line2": "2 66339  43.0004  33.9235 0001437 269.5286 231.1719 15.40705882  5625"
      },
      "geometry": {
        "type": "Point",
        "coordinates": [
          -175.15341667345044,
          23.074808480264817
        ]
      }
    },
    {
      "type": "Feature",
      "properties": {
        "norad_id": 66340,
        "name": "STARLINK-35218",
        "group": "last-30-days",
        "lat": -12.872144485184098,
        "lon": -133.88520192998365,
        "alt_km": 416.25873061494895,
        "timestamp": "2025-12-04T15:47:52.867475+00:00",
        "meta_object_name": "STARLINK-35218",
        "meta_object_id": "2025-253X",
        "meta_epoch": "2025-12-04T04:07:21.263232",
        "meta_mean_motion": 15.50617051,
        "meta_eccentricity": 0.00018189,
        "meta_inclination": 43.0005,
        "meta_ra_of_asc_node": 34.766,
        "meta_arg_of_pericenter": 298.9764,
        "meta_mean_anomaly": 61.0914,
        "meta_ephemeris_type": 0,
        "meta_classification_type": "U",
        "meta_norad_cat_id": 66340,
        "meta_element_set_no": 999,
        "meta_rev_at_epoch": 560,
        "meta_bstar": 0.0013103805,
        "meta_mean_motion_dot": 0.00077402,
        "meta_mean_motion_ddot": 0,
        "tle_line1": "1 66340U 25253X   25338.17177388  .00077402  00000+0  13104-2 0  9999",
        "tle_line2": "2 66340  43.0005  34.7660 0001818 298.9764  61.0914 15.50617051  5605"
      },
      "geometry": {
        "type": "Point",
        "coordinates": [
          -133.88520192998365,
          -12.872144485184098
        ]
      }
    },
    {
      "type": "Feature",
      "properties": {
        "norad_id": 66341,
        "name": "STARLINK-35522",
        "group": "last-30-days",
        "lat": 8.261936761729283,
        "lon": -156.96473960152878,
        "alt_km": 436.5186204073525,
        "timestamp": "2025-12-04T15:47:52.867487+00:00",
        "meta_object_name": "STARLINK-35522",
        "meta_object_id": "2025-253Y",
        "meta_epoch": "2025-12-04T08:00:01.999872",
        "meta_mean_motion": 15.44406871,
        "meta_eccentricity": 0.00011106,
        "meta_inclination": 43.0004,
        "meta_ra_of_asc_node": 33.8808,
        "meta_arg_of_pericenter": 278.1578,
        "meta_mean_anomaly": 241.9669,
        "meta_ephemeris_type": 0,
        "meta_classification_type": "U",
        "meta_norad_cat_id": 66341,
        "meta_element_set_no": 999,
        "meta_rev_at_epoch": 567,
        "meta_bstar": -0.049829818,
        "meta_mean_motion_dot": -0.02090445,
        "meta_mean_motion_ddot": 0,
        "tle_line1": "1 66341U 25253Y   25338.33335648 -.02090445  00000+0 -49830-1 0  9993",
        "tle_line2": "2 66341  43.0004  33.8808 0001110 278.1578 241.9669 15.44406871  5679"
      },
      "geometry": {
        "type": "Point",
        "coordinates": [
          -156.96473960152878,
          8.261936761729283
        ]
      }
    },
    {
      "type": "Feature",
      "properties": {
        "norad_id": 66342,
        "name": "STARLINK-35535",
        "group": "last-30-days",
        "lat": 42.763943532566685,
        "lon": 129.2068212377686,
        "alt_km": 438.47022114073025,
        "timestamp": "2025-12-04T15:47:52.867500+00:00",
        "meta_object_name": "STARLINK-35535",
        "meta_object_id": "2025-253Z",
        "meta_epoch": "2025-12-04T08:00:01.999872",
        "meta_mean_motion": 15.407557,
        "meta_eccentricity": 0.0001578,
        "meta_inclination": 43.0001,
        "meta_ra_of_asc_node": 34.0446,
        "meta_arg_of_pericenter": 257.7404,
        "meta_mean_anomaly": 193.2422,
        "meta_ephemeris_type": 0,
        "meta_classification_type": "U",
        "meta_norad_cat_id": 66342,
        "meta_element_set_no": 999,
        "meta_rev_at_epoch": 557,
        "meta_bstar": -0.0041245675,
        "meta_mean_motion_dot": -0.0016915,
        "meta_mean_motion_ddot": 0,
        "tle_line1": "1 66342U 25253Z   25338.33335648 -.00169150  00000+0 -41246-2 0  9996",
        "tle_line2": "2 66342  43.0001  34.0446 0001578 257.7404 193.2422 15.40755700  5576"
      },
      "geometry": {
        "type": "Point",
        "coordinates": [
          129.2068212377686,
          42.763943532566685
        ]
      }
    },
    {
      "type": "Feature",
      "properties": {
        "norad_id": 66343,
        "name": "STARLINK-35467",
        "group": "last-30-days",
        "lat": 35.23888603336221,
        "lon": 81.55909581918273,
        "alt_km": 439.56771160733933,
        "timestamp": "2025-12-04T15:47:52.867511+00:00",
        "meta_object_name": "STARLINK-35467",
        "meta_object_id": "2025-253AA",
        "meta_epoch": "2025-12-04T08:00:01.999872",
        "meta_mean_motion": 15.40810792,
        "meta_eccentricity": 0.00014206,
        "meta_inclination": 43.0004,
        "meta_ra_of_asc_node": 34.1357,
        "meta_arg_of_pericenter": 251.0692,
        "meta_mean_anomaly": 162.5824,
        "meta_ephemeris_type": 0,
        "meta_classification_type": "U",
        "meta_norad_cat_id": 66343,
        "meta_element_set_no": 999,
        "meta_rev_at_epoch": 557,
        "meta_bstar": -0.0063758855,
        "meta_mean_motion_dot": -0.00258764,
        "meta_mean_motion_ddot": 0,
        "tle_line1": "1 66343U 25253AA  25338.33335648 -.00258764  00000+0 -63759-2 0  9990",
        "tle_line2": "2 66343  43.0004  34.1357 0001420 251.0692 162.5824 15.40810792  5572"
      },
      "geometry": {
        "type": "Point",
        "coordinates": [
          81.55909581918273,
          35.23888603336221
        ]
      }
    }
  ]
}